CCSDS_OMM_VERS = 2.0
CREATION_DATE  = 
ORIGINATOR     = 

OBJECT_NAME    = KUIPER-00141
OBJECT_ID      = 2025-228V
CENTER_NAME    = EARTH
REF_FRAME      = TEME
TIME_SYSTEM    = UTC
MEAN_ELEMENT_THEORY = SGP/SGP4

EPOCH          = 2025-11-04T04:18:18.518400
MEAN_MOTION    = 15.34795864
ECCENTRICITY   = .00054371
INCLINATION    = 51.8803
RA_OF_ASC_NODE = 206.3529
ARG_OF_PERICENTER = 212.4095
MEAN_ANOMALY   = 147.6557

EPHEMERIS_TYPE = 0
CLASSIFICATION_TYPE = U
NORAD_CAT_ID   = 65966
ELEMENT_SET_NO = 999
REV_AT_EPOCH   = 449
BSTAR          = .85885075E-3
MEAN_MOTION_DOT = .29158E-3
MEAN_MOTION_DDOT = 0

CCSDS_OMM_VERS = 2.0
CREATION_DATE  = 
ORIGINATOR     = 

OBJECT_NAME    = KUIPER-00146
OBJECT_ID      = 2025-228W
CENTER_NAME    = EARTH
REF_FRAME      = TEME
TIME_SYSTEM    = UTC
MEAN_ELEMENT_THEORY = SGP/SGP4

EPOCH          = 2025-11-04T04:18:59.027904
MEAN_MOTION    = 15.34768204
ECCENTRICITY   = .00055944
INCLINATION    = 51.8810
RA_OF_ASC_NODE = 206.3642
ARG_OF_PERICENTER = 214.4871
MEAN_ANOMALY   = 145.5753

EPHEMERIS_TYPE = 0
CLASSIFICATION_TYPE = U
NORAD_CAT_ID   = 65967
ELEMENT_SET_NO = 999
REV_AT_EPOCH   = 449
BSTAR          = .97253579E-3
MEAN_MOTION_DOT = .33057E-3
MEAN_MOTION_DDOT = 0

CCSDS_OMM_VERS = 2.0
CREATION_DATE  = 
ORIGINATOR     = 

OBJECT_NAME    = KUIPER-00149
OBJECT_ID      = 2025-228X
CENTER_NAME    = EARTH
REF_FRAME      = TEME
TIME_SYSTEM    = UTC
MEAN_ELEMENT_THEORY = SGP/SGP4

EPOCH          = 2025-11-04T02:41:35.441664
MEAN_MOTION    = 15.34942951
ECCENTRICITY   = .0005497
INCLINATION    = 51.8805
RA_OF_ASC_NODE = 206.6551
ARG_OF_PERICENTER = 211.3752
MEAN_ANOMALY   = 148.6907

EPHEMERIS_TYPE = 0
CLASSIFICATION_TYPE = U
NORAD_CAT_ID   = 65968
ELEMENT_SET_NO = 999
REV_AT_EPOCH   = 448
BSTAR          = .77234298E-3
MEAN_MOTION_DOT = .26297E-3
MEAN_MOTION_DDOT = 0

CCSDS_OMM_VERS = 2.0
CREATION_DATE  = 
ORIGINATOR     = 

OBJECT_NAME    = KUIPER-00154
OBJECT_ID      = 2025-228Y
CENTER_NAME    = EARTH
REF_FRAME      = TEME
TIME_SYSTEM    = UTC
MEAN_ELEMENT_THEORY = SGP/SGP4

EPOCH          = 2025-11-04T04:13:58.823328
MEAN_MOTION    = 15.35013258
ECCENTRICITY   = .00057598
INCLINATION    = 51.8802
RA_OF_ASC_NODE = 206.3349
ARG_OF_PERICENTER = 208.4575
MEAN_ANOMALY   = 151.6097

EPHEMERIS_TYPE = 0
CLASSIFICATION_TYPE = U
NORAD_CAT_ID   = 65969
ELEMENT_SET_NO = 999
REV_AT_EPOCH   = 449
BSTAR          = .92626523E-3
MEAN_MOTION_DOT = .3171E-3
MEAN_MOTION_DDOT = 0

CCSDS_OMM_VERS = 2.0
CREATION_DATE  = 
ORIGINATOR     = 

OBJECT_NAME    = KUIPER-00157
OBJECT_ID      = 2025-228Z
CENTER_NAME    = EARTH
REF_FRAME      = TEME
TIME_SYSTEM    = UTC
MEAN_ELEMENT_THEORY = SGP/SGP4

EPOCH          = 2025-11-04T04:23:33.105120
MEAN_MOTION    = 15.34562889
ECCENTRICITY   = .00056939
INCLINATION    = 51.8812
RA_OF_ASC_NODE = 206.3840
ARG_OF_PERICENTER = 226.1931
MEAN_ANOMALY   = 133.8584

EPHEMERIS_TYPE = 0
CLASSIFICATION_TYPE = U
NORAD_CAT_ID   = 65970
ELEMENT_SET_NO = 999
REV_AT_EPOCH   = 449
BSTAR          = .94532432E-3
MEAN_MOTION_DOT = .31906E-3
MEAN_MOTION_DDOT = 0

CCSDS_OMM_VERS = 2.0
CREATION_DATE  = 
ORIGINATOR     = 

OBJECT_NAME    = STRIX-5
OBJECT_ID      = 2025-229A
CENTER_NAME    = EARTH
REF_FRAME      = TEME
TIME_SYSTEM    = UTC
MEAN_ELEMENT_THEORY = SGP/SGP4

EPOCH          = 2025-11-04T03:11:14.984448
MEAN_MOTION    = 15.01733695
ECCENTRICITY   = .0039047
INCLINATION    = 41.9269
RA_OF_ASC_NODE = 93.0964
ARG_OF_PERICENTER = 18.2503
MEAN_ANOMALY   = 341.9714

EPHEMERIS_TYPE = 0
CLASSIFICATION_TYPE = U
NORAD_CAT_ID   = 65971
ELEMENT_SET_NO = 999
REV_AT_EPOCH   = 310
BSTAR          = .40814355E-3
MEAN_MOTION_DOT = .5298E-4
MEAN_MOTION_DDOT = 0

CCSDS_OMM_VERS = 2.0
CREATION_DATE  = 
ORIGINATOR     = 

OBJECT_NAME    = ELECTRON R/B
OBJECT_ID      = 2025-229B
CENTER_NAME    = EARTH
REF_FRAME      = TEME
TIME_SYSTEM    = UTC
MEAN_ELEMENT_THEORY = SGP/SGP4

EPOCH          = 2025-11-03T19:12:22.789728
MEAN_MOTION    = 15.01728763
ECCENTRICITY   = .00391141
INCLINATION    = 41.9268
RA_OF_ASC_NODE = 94.9326
ARG_OF_PERICENTER = 16.0549
MEAN_ANOMALY   = 344.1507

EPHEMERIS_TYPE = 0
CLASSIFICATION_TYPE = U
NORAD_CAT_ID   = 65972
ELEMENT_SET_NO = 999
REV_AT_EPOCH   = 303
BSTAR          = .36246671E-3
MEAN_MOTION_DOT = .4683E-4
MEAN_MOTION_DDOT = 0

CCSDS_OMM_VERS = 2.0
CREATION_DATE  = 
ORIGINATOR     = 

OBJECT_NAME    = ELECTRON KICK STAGE R/B
OBJECT_ID      = 2025-229C
CENTER_NAME    = EARTH
REF_FRAME      = TEME
TIME_SYSTEM    = UTC
MEAN_ELEMENT_THEORY = SGP/SGP4

EPOCH          = 2025-11-04T02:54:41.228064
MEAN_MOTION    = 15.02626717
ECCENTRICITY   = .0040204
INCLINATION    = 41.9821
RA_OF_ASC_NODE = 93.1233
ARG_OF_PERICENTER = 18.3017
MEAN_ANOMALY   = 341.9246

EPHEMERIS_TYPE = 0
CLASSIFICATION_TYPE = U
NORAD_CAT_ID   = 65973
ELEMENT_SET_NO = 999
REV_AT_EPOCH   = 307
BSTAR          = .50918628E-3
MEAN_MOTION_DOT = .6829E-4
MEAN_MOTION_DDOT = 0

CCSDS_OMM_VERS = 2.0
CREATION_DATE  = 
ORIGINATOR     = 

OBJECT_NAME    = SDA_1664
OBJECT_ID      = 2025-230A
CENTER_NAME    = EARTH
REF_FRAME      = TEME
TIME_SYSTEM    = UTC
MEAN_ELEMENT_THEORY = SGP/SGP4

EPOCH          = 2025-11-04T05:26:10.785408
MEAN_MOTION    = 13.84696637
ECCENTRICITY   = .00034167
INCLINATION    = 81.2993
RA_OF_ASC_NODE = 60.3269
ARG_OF_PERICENTER = 63.5851
MEAN_ANOMALY   = 296.5657

EPHEMERIS_TYPE = 0
CLASSIFICATION_TYPE = U
NORAD_CAT_ID   = 65974
ELEMENT_SET_NO = 999
REV_AT_EPOCH   = 267
BSTAR          = .20282848E-3
MEAN_MOTION_DOT = .24E-5
MEAN_MOTION_DDOT = 0

CCSDS_OMM_VERS = 2.0
CREATION_DATE  = 
ORIGINATOR     = 

OBJECT_NAME    = SDA_1665
OBJECT_ID      = 2025-230B
CENTER_NAME    = EARTH
REF_FRAME      = TEME
TIME_SYSTEM    = UTC
MEAN_ELEMENT_THEORY = SGP/SGP4

EPOCH          = 2025-11-04T06:55:36.994368
MEAN_MOTION    = 13.85426594
ECCENTRICITY   = .00050136
INCLINATION    = 81.3030
RA_OF_ASC_NODE = 60.2573
ARG_OF_PERICENTER = 105.5414
MEAN_ANOMALY   = 254.6297

EPHEMERIS_TYPE = 0
CLASSIFICATION_TYPE = U
NORAD_CAT_ID   = 65975
ELEMENT_SET_NO = 999
REV_AT_EPOCH   = 268
BSTAR          = .15006082E-3
MEAN_MOTION_DOT = .183E-5
MEAN_MOTION_DDOT = 0

CCSDS_OMM_VERS = 2.0
CREATION_DATE  = 
ORIGINATOR     = 

OBJECT_NAME    = SDA_1666
OBJECT_ID      = 2025-230C
CENTER_NAME    = EARTH
REF_FRAME      = TEME
TIME_SYSTEM    = UTC
MEAN_ELEMENT_THEORY = SGP/SGP4

EPOCH          = 2025-11-04T05:27:36.235872
MEAN_MOTION    = 13.84625427
ECCENTRICITY   = .00030667
INCLINATION    = 81.3001
RA_OF_ASC_NODE = 60.3303
ARG_OF_PERICENTER = 60.7060
MEAN_ANOMALY   = 299.4403

EPHEMERIS_TYPE = 0
CLASSIFICATION_TYPE = U
NORAD_CAT_ID   = 65976
ELEMENT_SET_NO = 999
REV_AT_EPOCH   = 267
BSTAR          = .21888614E-3
MEAN_MOTION_DOT = .258E-5
MEAN_MOTION_DDOT = 0

CCSDS_OMM_VERS = 2.0
CREATION_DATE  = 
ORIGINATOR     = 

OBJECT_NAME    = SDA_1667
OBJECT_ID      = 2025-230D
CENTER_NAME    = EARTH
REF_FRAME      = TEME
TIME_SYSTEM    = UTC
MEAN_ELEMENT_THEORY = SGP/SGP4

EPOCH          = 2025-11-04T05:22:35.613984
MEAN_MOTION    = 13.84876178
ECCENTRICITY   = .00039397
INCLINATION    = 81.2997
RA_OF_ASC_NODE = 60.3246
ARG_OF_PERICENTER = 74.0809
MEAN_ANOMALY   = 286.0782

EPHEMERIS_TYPE = 0
CLASSIFICATION_TYPE = U
NORAD_CAT_ID   = 65977
ELEMENT_SET_NO = 999
REV_AT_EPOCH   = 267
BSTAR          = .22282921E-3
MEAN_MOTION_DOT = .263E-5
MEAN_MOTION_DDOT = 0

